CCSDS_OMM_VERS = 2.0
CREATION_DATE  = 
ORIGINATOR     = 

OBJECT_NAME    = STARLINK-36907
OBJECT_ID      = 2026-037J
CENTER_NAME    = EARTH
REF_FRAME      = TEME
TIME_SYSTEM    = UTC
MEAN_ELEMENT_THEORY = SGP/SGP4

EPOCH          = 2026-03-24T12:00:01.999296
MEAN_MOTION    = 15.52658519
ECCENTRICITY   = .0000889
INCLINATION    = 43.0000
RA_OF_ASC_NODE = 108.6343
ARG_OF_PERICENTER = 268.2518
MEAN_ANOMALY   = 245.1265

EPHEMERIS_TYPE = 0
CLASSIFICATION_TYPE = U
NORAD_CAT_ID   = 67940
ELEMENT_SET_NO = 999
REV_AT_EPOCH   = 557
BSTAR          = -.36044E-1
MEAN_MOTION_DOT = -.2032497E-1
MEAN_MOTION_DDOT = 0

CCSDS_OMM_VERS = 2.0
CREATION_DATE  = 
ORIGINATOR     = 

OBJECT_NAME    = STARLINK-36927
OBJECT_ID      = 2026-037K
CENTER_NAME    = EARTH
REF_FRAME      = TEME
TIME_SYSTEM    = UTC
MEAN_ELEMENT_THEORY = SGP/SGP4

EPOCH          = 2026-03-24T12:00:01.999296
MEAN_MOTION    = 15.50506119
ECCENTRICITY   = .0001066
INCLINATION    = 42.9996
RA_OF_ASC_NODE = 108.7955
ARG_OF_PERICENTER = 265.0724
MEAN_ANOMALY   = 182.6528

EPHEMERIS_TYPE = 0
CLASSIFICATION_TYPE = U
NORAD_CAT_ID   = 67941
ELEMENT_SET_NO = 999
REV_AT_EPOCH   = 557
BSTAR          = .18668E-2
MEAN_MOTION_DOT = .110443E-2
MEAN_MOTION_DDOT = 0

CCSDS_OMM_VERS = 2.0
CREATION_DATE  = 
ORIGINATOR     = 

OBJECT_NAME    = STARLINK-36914
OBJECT_ID      = 2026-037L
CENTER_NAME    = EARTH
REF_FRAME      = TEME
TIME_SYSTEM    = UTC
MEAN_ELEMENT_THEORY = SGP/SGP4

EPOCH          = 2026-03-24T12:00:01.999296
MEAN_MOTION    = 15.56733047
ECCENTRICITY   = .0001043
INCLINATION    = 43.0001
RA_OF_ASC_NODE = 108.4123
ARG_OF_PERICENTER = 277.2835
MEAN_ANOMALY   = 325.9754

EPHEMERIS_TYPE = 0
CLASSIFICATION_TYPE = U
NORAD_CAT_ID   = 67942
ELEMENT_SET_NO = 999
REV_AT_EPOCH   = 557
BSTAR          = -.28428E-1
MEAN_MOTION_DOT = -.1848954E-1
MEAN_MOTION_DDOT = 0

CCSDS_OMM_VERS = 2.0
CREATION_DATE  = 
ORIGINATOR     = 

OBJECT_NAME    = STARLINK-36851
OBJECT_ID      = 2026-037M
CENTER_NAME    = EARTH
REF_FRAME      = TEME
TIME_SYSTEM    = UTC
MEAN_ELEMENT_THEORY = SGP/SGP4

EPOCH          = 2026-03-24T12:00:01.999296
MEAN_MOTION    = 15.50452849
ECCENTRICITY   = .0001432
INCLINATION    = 42.9996
RA_OF_ASC_NODE = 108.7615
ARG_OF_PERICENTER = 311.8047
MEAN_ANOMALY   = 149.8942

EPHEMERIS_TYPE = 0
CLASSIFICATION_TYPE = U
NORAD_CAT_ID   = 67943
ELEMENT_SET_NO = 999
REV_AT_EPOCH   = 557
BSTAR          = .20233E-2
MEAN_MOTION_DOT = .11965E-2
MEAN_MOTION_DDOT = 0

CCSDS_OMM_VERS = 2.0
CREATION_DATE  = 
ORIGINATOR     = 

OBJECT_NAME    = STARLINK-36892
OBJECT_ID      = 2026-037N
CENTER_NAME    = EARTH
REF_FRAME      = TEME
TIME_SYSTEM    = UTC
MEAN_ELEMENT_THEORY = SGP/SGP4

EPOCH          = 2026-03-24T12:00:01.999296
MEAN_MOTION    = 15.51251557
ECCENTRICITY   = .0001628
INCLINATION    = 42.9996
RA_OF_ASC_NODE = 108.6879
ARG_OF_PERICENTER = 293.8554
MEAN_ANOMALY   = 197.7658

EPHEMERIS_TYPE = 0
CLASSIFICATION_TYPE = U
NORAD_CAT_ID   = 67944
ELEMENT_SET_NO = 999
REV_AT_EPOCH   = 557
BSTAR          = -.17426E-1
MEAN_MOTION_DOT = -.959766E-2
MEAN_MOTION_DDOT = 0

CCSDS_OMM_VERS = 2.0
CREATION_DATE  = 
ORIGINATOR     = 

OBJECT_NAME    = STARLINK-36908
OBJECT_ID      = 2026-037P
CENTER_NAME    = EARTH
REF_FRAME      = TEME
TIME_SYSTEM    = UTC
MEAN_ELEMENT_THEORY = SGP/SGP4

EPOCH          = 2026-03-24T12:00:01.999296
MEAN_MOTION    = 15.52422711
ECCENTRICITY   = .0001192
INCLINATION    = 43.0000
RA_OF_ASC_NODE = 108.6128
ARG_OF_PERICENTER = 281.4007
MEAN_ANOMALY   = 240.4203

EPHEMERIS_TYPE = 0
CLASSIFICATION_TYPE = U
NORAD_CAT_ID   = 67945
ELEMENT_SET_NO = 999
REV_AT_EPOCH   = 557
BSTAR          = -.34299E-1
MEAN_MOTION_DOT = -.1929399E-1
MEAN_MOTION_DDOT = 0

CCSDS_OMM_VERS = 2.0
CREATION_DATE  = 
ORIGINATOR     = 

OBJECT_NAME    = STARLINK-36909
OBJECT_ID      = 2026-037Q
CENTER_NAME    = EARTH
REF_FRAME      = TEME
TIME_SYSTEM    = UTC
MEAN_ELEMENT_THEORY = SGP/SGP4

EPOCH          = 2026-03-24T12:00:01.999296
MEAN_MOTION    = 15.58852559
ECCENTRICITY   = .0001207
INCLINATION    = 43.0001
RA_OF_ASC_NODE = 108.2371
ARG_OF_PERICENTER = 281.2898
MEAN_ANOMALY   = 31.8337

EPHEMERIS_TYPE = 0
CLASSIFICATION_TYPE = U
NORAD_CAT_ID   = 67946
ELEMENT_SET_NO = 999
REV_AT_EPOCH   = 558
BSTAR          = -.26177E-1
MEAN_MOTION_DOT = -.1845887E-1
MEAN_MOTION_DDOT = 0

CCSDS_OMM_VERS = 2.0
CREATION_DATE  = 
ORIGINATOR     = 

OBJECT_NAME    = STARLINK-36920
OBJECT_ID      = 2026-037R
CENTER_NAME    = EARTH
REF_FRAME      = TEME
TIME_SYSTEM    = UTC
MEAN_ELEMENT_THEORY = SGP/SGP4

EPOCH          = 2026-03-24T12:00:01.999296
MEAN_MOTION    = 15.50525407
ECCENTRICITY   = .0001728
INCLINATION    = 42.9999
RA_OF_ASC_NODE = 108.9006
ARG_OF_PERICENTER = 274.8965
MEAN_ANOMALY   = 129.8963

EPHEMERIS_TYPE = 0
CLASSIFICATION_TYPE = U
NORAD_CAT_ID   = 67947
ELEMENT_SET_NO = 999
REV_AT_EPOCH   = 558
BSTAR          = .22981E-2
MEAN_MOTION_DOT = .136592E-2
MEAN_MOTION_DDOT = 0

CCSDS_OMM_VERS = 2.0
CREATION_DATE  = 
ORIGINATOR     = 

OBJECT_NAME    = STARLINK-36873
OBJECT_ID      = 2026-037S
CENTER_NAME    = EARTH
REF_FRAME      = TEME
TIME_SYSTEM    = UTC
MEAN_ELEMENT_THEORY = SGP/SGP4

EPOCH          = 2026-03-24T12:00:01.999296
MEAN_MOTION    = 15.50595092
ECCENTRICITY   = .0002192
INCLINATION    = 42.9999
RA_OF_ASC_NODE = 108.9730
ARG_OF_PERICENTER = 305.8915
MEAN_ANOMALY   = 69.4419

EPHEMERIS_TYPE = 0
CLASSIFICATION_TYPE = U
NORAD_CAT_ID   = 67948
ELEMENT_SET_NO = 999
REV_AT_EPOCH   = 558
BSTAR          = -.42941E-3
MEAN_MOTION_DOT = -.25467E-3
MEAN_MOTION_DDOT = 0

CCSDS_OMM_VERS = 2.0
CREATION_DATE  = 
ORIGINATOR     = 

OBJECT_NAME    = STARLINK-36863
OBJECT_ID      = 2026-037T
CENTER_NAME    = EARTH
REF_FRAME      = TEME
TIME_SYSTEM    = UTC
MEAN_ELEMENT_THEORY = SGP/SGP4

EPOCH          = 2026-03-24T12:00:01.999296
MEAN_MOTION    = 15.50470309
ECCENTRICITY   = .0000976
INCLINATION    = 42.9999
RA_OF_ASC_NODE = 108.6575
ARG_OF_PERICENTER = 293.2210
MEAN_ANOMALY   = 210.0922

EPHEMERIS_TYPE = 0
CLASSIFICATION_TYPE = U
NORAD_CAT_ID   = 67949
ELEMENT_SET_NO = 999
REV_AT_EPOCH   = 558
BSTAR          = .21473E-2
MEAN_MOTION_DOT = .127201E-2
MEAN_MOTION_DDOT = 0

CCSDS_OMM_VERS = 2.0
CREATION_DATE  = 
ORIGINATOR     = 

OBJECT_NAME    = STARLINK-36887
OBJECT_ID      = 2026-037U
CENTER_NAME    = EARTH
REF_FRAME      = TEME
TIME_SYSTEM    = UTC
MEAN_ELEMENT_THEORY = SGP/SGP4

EPOCH          = 2026-03-24T12:00:01.999296
MEAN_MOTION    = 15.50512911
ECCENTRICITY   = .0001541
INCLINATION    = 42.9997
RA_OF_ASC_NODE = 109.5885
ARG_OF_PERICENTER = 280.0489
MEAN_ANOMALY   = 206.4311

EPHEMERIS_TYPE = 0
CLASSIFICATION_TYPE = U
NORAD_CAT_ID   = 67950
ELEMENT_SET_NO = 999
REV_AT_EPOCH   = 558
BSTAR          = .1713E-2
MEAN_MOTION_DOT = .101224E-2
MEAN_MOTION_DDOT = 0

CCSDS_OMM_VERS = 2.0
CREATION_DATE  = 
ORIGINATOR     = 

OBJECT_NAME    = STARLINK-36897
OBJECT_ID      = 2026-037V
CENTER_NAME    = EARTH
REF_FRAME      = TEME
TIME_SYSTEM    = UTC
MEAN_ELEMENT_THEORY = SGP/SGP4

EPOCH          = 2026-03-24T12:00:01.999296
MEAN_MOTION    = 15.50473373
ECCENTRICITY   = .0000896
INCLINATION    = 42.9999
RA_OF_ASC_NODE = 108.7036
ARG_OF_PERICENTER = 297.5557
MEAN_ANOMALY   = 186.5285

EPHEMERIS_TYPE = 0
CLASSIFICATION_TYPE = U
NORAD_CAT_ID   = 67951
ELEMENT_SET_NO = 999
REV_AT_EPOCH   = 558
BSTAR          = .19815E-2
MEAN_MOTION_DOT = .117219E-2
MEAN_MOTION_DDOT = 0

